NORAD_CAT_ID,OBJECT_NAME,OBJECT_TYPE,EPOCH,MEAN_MOTION,ECCENTRICITY,INCLINATION,RA_OF_ASC_NODE,ARG_OF_PERICENTER,MEAN_ANOMALY,BSTAR,MEAN_MOTION_DOT,MEAN_MOTION_DDOT,TLE_LINE0,TLE_LINE1,TLE_LINE2,SEMIMAJOR_AXIS,PERIOD,APOGEE,PERIGEE,DECAYED
54790.0,STARLINK-5445,PAYLOAD,2023-10-11 23:06:25,15.08835431,0.0001409,53.218,18.1572,86.6724,273.443,0.00096451,0.00015094,0.0,0 STARLINK-5445,1 54790U 22175AJ  23284.96278946  .00015094  00000-0  96451-3 0  9999,2 54790  53.2180  18.1572 0001409  86.6724 273.4430 15.08835431 45164,6917.894,95.438,540.734,538.785,0.0
54790.0,STARLINK-5445,PAYLOAD,2023-10-12 13:24:53,15.08858111,0.0001321,53.2172,15.4807,80.2376,279.8766,0.0021556,0.00034202,0.0,0 STARLINK-5445,1 54790U 22175AJ  23285.55894826  .00034202  00000-0  21556-2 0  9991,2 54790  53.2172  15.4807 0001321  80.2376 279.8766 15.08858111 47414,6917.825,95.436,540.604,538.776,0.0
54790.0,STARLINK-5445,PAYLOAD,2023-10-12 16:35:39,15.08870598,0.0001402,53.2176,14.8862,77.7209,282.394,0.0023087,0.00036677,0.0,0 STARLINK-5445,1 54790U 22175AJ  23285.69142595  .00036677  00000-0  23087-2 0  9994,2 54790  53.2176  14.8862 0001402  77.7209 282.3940 15.08870598 45276,6917.787,95.436,540.622,538.682,0.0
54790.0,STARLINK-5445,PAYLOAD,2023-10-12 22:57:12,15.08843405,0.0002605,53.2182,13.6958,86.243,273.886,0.00068706,0.00010665,0.0,0 STARLINK-5445,1 54790U 22175AJ  23285.95639294  .00010665  00000-0  68706-3 0  9997,2 54790  53.2182  13.6958 0002605  86.2430 273.8860 15.08843405 45311,6917.87,95.437,541.537,537.933,0.0
54790.0,STARLINK-5445,PAYLOAD,2023-10-13 13:15:40,15.08856331,0.0001734,53.2182,11.0209,86.5362,273.5829,0.0010186,0.00015967,0.0,0 STARLINK-5445,1 54790U 22175AJ  23286.55254946  .00015967  00000-0  10186-2 0  9999,2 54790  53.2182  11.0209 0001734  86.5362 273.5829 15.08856331 47564,6917.83,95.437,540.895,538.496,0.0
54790.0,STARLINK-5445,PAYLOAD,2023-10-14 11:31:03,15.08867282,0.0001515,53.2177,6.8602,87.5002,272.6163,0.00058738,9.079e-05,0.0,0 STARLINK-5445,1 54790U 22175AJ  23287.47989964  .00009079  00000-0  58738-3 0  9999,2 54790  53.2177   6.8602 0001515  87.5002 272.6163 15.08867282 45540,6917.797,95.436,540.71,538.614,0.0
54790.0,STARLINK-5445,PAYLOAD,2023-10-14 13:06:26,15.08875014,0.0001723,53.2174,6.5612,89.2383,270.8806,0.0010139,0.000159,0.0,0 STARLINK-5445,1 54790U 22175AJ  23287.54613754  .00015900  00000-0  10139-2 0  9990,2 54790  53.2174   6.5612 0001723  89.2383 270.8806 15.08875014 47714,6917.773,95.435,540.83,538.446,0.0
54790.0,STARLINK-5445,PAYLOAD,2023-10-14 22:38:45,15.08852242,0.0001866,53.2181,4.7769,94.5386,265.582,0.00013591,1.876e-05,0.0,0 STARLINK-5445,1 54790U 22175AJ  23287.94357949  .00001876  00000-0  13591-3 0  9998,2 54790  53.2181   4.7769 0001866  94.5386 265.5820 15.08852242 45617,6917.843,95.437,540.999,538.417,0.0
54790.0,STARLINK-5445,PAYLOAD,2023-10-15 11:21:51,15.08819711,0.0001811,53.2175,2.3988,101.7162,258.4034,-0.00031492,-5.294e-05,0.0,0 STARLINK-5445,1 54790U 22175AJ  23288.47350978 -.00005294  00000-0 -31492-3 0  9992,2 54790  53.2175   2.3988 0001811 101.7162 258.4034 15.08819711 45690,6917.942,95.439,541.06,538.555,0.0
54790.0,STARLINK-5445,PAYLOAD,2023-10-16 08:01:52,15.08837373,0.0001734,53.2158,358.5327,101.8084,258.3103,0.0010789,0.00016923,0.0,0 STARLINK-5445,1 54790U 22175AJ  23289.33464092  .00016923  00000-0  10789-2 0  9995,2 54790  53.2158 358.5327 0001734 101.8084 258.3103 15.08837373 45827,6917.888,95.438,540.953,538.554,0.0
54790.0,STARLINK-5445,PAYLOAD,2023-10-16 14:23:25,15.08857557,0.0001824,53.2169,357.3432,97.8524,262.2676,0.0016445,0.00025994,0.0,0 STARLINK-5445,1 54790U 22175AJ  23289.59959879  .00025994  00000-0  16445-2 0  9998,2 54790  53.2169 357.3432 0001824  97.8524 262.2676 15.08857557 48026,6917.827,95.436,540.954,538.43,0.0
54790.0,STARLINK-5445,PAYLOAD,2023-10-17 11:03:26,15.08852791,0.0001558,53.2173,353.4776,92.4677,267.6494,0.001231,0.00019364,0.0,0 STARLINK-5445,1 54790U 22175AJ  23290.46071909  .00019364  00000-0  12310-2 0  9996,2 54790  53.2173 353.4776 0001558  92.4677 267.6494 15.08852791 45998,6917.841,95.437,540.784,538.628,0.0
54790.0,STARLINK-5445,PAYLOAD,2023-10-18 10:54:13,15.08850137,0.0001629,53.2174,349.0168,86.7865,273.3313,0.00079891,0.00012453,0.0,0 STARLINK-5445,1 54790U 22175AJ  23291.45431847  .00012453  00000-0  79891-3 0  9997,2 54790  53.2174 349.0168 0001629  86.7865 273.3313 15.08850137 46143,6917.849,95.437,540.841,538.587,0.0
54790.0,STARLINK-5445,PAYLOAD,2023-10-18 20:26:31,15.08845554,0.0001567,53.2176,347.234,87.7027,272.4145,0.00027655,4.117e-05,0.0,0 STARLINK-5445,1 54790U 22175AJ  23291.85175771  .00004117  00000-0  27655-3 0  9991,2 54790  53.2176 347.2340 0001567  87.7027 272.4145 15.08845554 46206,6917.863,95.437,540.812,538.644,0.0
54790.0,STARLINK-5445,PAYLOAD,2023-10-19 09:09:36,15.08853086,0.0001683,53.218,344.8546,88.2027,271.9158,0.00032826,4.942e-05,0.0,0 STARLINK-5445,1 54790U 22175AJ  23292.38167337  .00004942  00000-0  32826-3 0  9991,2 54790  53.2180 344.8546 0001683  88.2027 271.9158 15.08853086 48442,6917.84,95.437,540.87,538.541,0.0
54790.0,STARLINK-5445,PAYLOAD,2023-10-19 20:17:18,15.08848792,0.0001739,53.2172,342.7726,85.744,274.3751,0.00023554,3.463e-05,0.0,0 STARLINK-5445,1 54790U 22175AJ  23292.84535336  .00003463  00000-0  23554-3 0  9995,2 54790  53.2172 342.7726 0001739  85.7440 274.3751 15.08848792 48515,6917.854,95.437,540.922,538.516,0.0
54790.0,STARLINK-5445,PAYLOAD,2023-10-20 10:35:47,15.08836244,0.000148,53.2177,340.097,91.8987,268.2175,-5.7695e-05,-1.206e-05,0.0,0 STARLINK-5445,1 54790U 22175AJ  23293.44151750 -.00001206  00000-0 -57695-4 0  9995,2 54790  53.2177 340.0970 0001480  91.8987 268.2175 15.08836244 46440,6917.892,95.438,540.781,538.733,0.0
54790.0,STARLINK-5445,PAYLOAD,2023-10-20 12:11:10,15.08836925,0.0001552,53.2176,339.7997,93.6198,266.4972,-3.961e-05,-9.18e-06,0.0,0 STARLINK-5445,1 54790U 22175AJ  23293.50775748 -.00000918  00000-0 -39610-4 0  9997,2 54790  53.2176 339.7997 0001552  93.6198 266.4972 15.08836925 48619,6917.89,95.438,540.828,538.681,0.0
54790.0,STARLINK-5445,PAYLOAD,2023-10-21 12:01:57,15.08842879,0.0001629,53.2181,335.3346,100.4278,259.6898,9.5324e-05,1.229e-05,0.0,0 STARLINK-5445,1 54790U 22175AJ  23294.50135855  .00001229  00000-0  95324-4 0  9995,2 54790  53.2181 335.3346 0001629 100.4278 259.6898 15.08842879 46609,6917.872,95.437,540.864,538.61,0.0
54790.0,STARLINK-5445,PAYLOAD,2023-10-21 19:58:53,15.08837051,0.0001669,53.2181,333.8504,80.5687,279.5494,0.00019192,2.767e-05,0.0,0 STARLINK-5445,1 54790U 22175AJ  23294.83256420  .00002767  00000-0  19192-3 0  9999,2 54790  53.2181 333.8504 0001669  80.5687 279.5494 15.08837051 48818,6917.889,95.438,540.909,538.6,0.0
54790.0,STARLINK-5445,PAYLOAD,2023-10-22 10:17:21,15.08839013,0.0001401,53.2167,331.1758,85.3599,274.7553,0.0001993,2.885e-05,0.0,0 STARLINK-5445,1 54790U 22175AJ  23295.42872508  .00002885  00000-0  19930-3 0  9997,2 54790  53.2167 331.1758 0001401  85.3599 274.7553 15.08839013 48906,6917.883,95.438,540.718,538.779,0.0
54790.0,STARLINK-5445,PAYLOAD,2023-10-22 19:49:40,15.08840128,0.000123,53.2166,329.392,90.2307,269.8826,0.00020802,3.024e-05,0.0,0 STARLINK-5445,1 54790U 22175AJ  23295.82616483  .00003024  00000-0  20802-3 0  9995,2 54790  53.2166 329.3920 0001230  90.2307 269.8826 15.08840128 48960,6917.88,95.438,540.596,538.894,0.0
54790.0,STARLINK-5445,PAYLOAD,2023-10-23 08:32:45,15.08841803,0.0001421,53.2169,327.0107,90.2709,269.8446,0.00011767,1.585e-05,0.0,0 STARLINK-5445,1 54790U 22175AJ  23296.35608552  .00001585  00000-0  11767-3 0  9992,2 54790  53.2169 327.0107 0001421  90.2709 269.8446 15.08841803 46881,6917.875,95.437,540.723,538.757,0.0
54790.0,STARLINK-5445,PAYLOAD,2023-10-23 19:40:27,15.08838901,0.0001426,53.2167,324.9293,88.7644,271.3511,9.6504e-05,1.248e-05,0.0,0 STARLINK-5445,1 54790U 22175AJ  23296.81976787  .00001248  00000-0  96504-4 0  9990,2 54790  53.2167 324.9293 0001426  88.7644 271.3511 15.08838901 49111,6917.884,95.438,540.735,538.762,0.0
54790.0,STARLINK-5445,PAYLOAD,2023-10-24 02:02:00,15.08835714,0.0001463,53.2165,323.7402,87.5052,272.6108,0.00016685,2.368e-05,0.0,0 STARLINK-5445,1 54790U 22175AJ  23297.08473118  .00002368  00000-0  16685-3 0  9995,2 54790  53.2165 323.7402 0001463  87.5052 272.6108 15.08835714 46997,6917.893,95.438,540.771,538.746,0.0
54790.0,STARLINK-5445,PAYLOAD,2023-10-24 08:23:33,15.08840125,0.0001548,53.2174,322.551,85.9832,274.1337,9.5474e-05,1.232e-05,0.0,0 STARLINK-5445,1 54790U 22175AJ  23297.34968920  .00001232  00000-0  95474-4 0  9997,2 54790  53.2174 322.5510 0001548  85.9832 274.1337 15.08840125 49194,6917.88,95.438,540.816,538.674,0.0
54790.0,STARLINK-5445,PAYLOAD,2023-10-25 11:25:05,15.08857416,0.0001661,53.2177,317.4951,88.0221,272.0961,7.6053e-05,9.23e-06,0.0,0 STARLINK-5445,1 54790U 22175AJ  23298.47575726  .00000923  00000-0  76053-4 0  9998,2 54790  53.2177 317.4951 0001661  88.0221 272.0961 15.08857416 47202,6917.827,95.436,540.841,538.543,0.0
54790.0,STARLINK-5445,PAYLOAD,2023-10-26 01:43:34,15.08840739,0.0001863,53.2172,314.8179,100.1966,259.9236,0.00010695,1.414e-05,0.0,0 STARLINK-5445,1 54790U 22175AJ  23299.07192663  .00001414  00000-0  10695-3 0  9995,2 54790  53.2172 314.8179 0001863 100.1966 259.9236 15.08840739 47294,6917.878,95.438,541.032,538.454,0.0
54790.0,STARLINK-5445,PAYLOAD,2023-10-26 11:15:52,15.08847947,0.0001538,53.2176,313.0346,88.154,271.9628,0.00013471,1.857e-05,0.0,0 STARLINK-5445,1 54790U 22175AJ  23299.46936077  .00001857  00000-0  13471-3 0  9999,2 54790  53.2176 313.0346 0001538  88.1540 271.9628 15.08847947 49511,6917.856,95.437,540.785,538.657,0.0
54790.0,STARLINK-5445,PAYLOAD,2023-10-26 17:37:25,15.08842693,0.0001638,53.2185,311.8438,82.3289,277.7889,8.1766e-05,1.014e-05,0.0,0 STARLINK-5445,1 54790U 22175AJ  23299.73432532  .00001014  00000-0  81766-4 0  9994,2 54790  53.2185 311.8438 0001638  82.3289 277.7889 15.08842693 49556,6917.872,95.437,540.87,538.604,0.0
